[{"OBJECT_NAME":"SHIJIAN-6 04B (SJ-6 04B)","OBJECT_ID":"2010-051B","EPOCH":"2026-03-09T23:26:29.179104","MEAN_MOTION":14.99121194,"ECCENTRICITY":0.00088219,"INCLINATION":97.8755,"RA_OF_ASC_NODE":73.3683,"ARG_OF_PERICENTER":293.8275,"MEAN_ANOMALY":66.2023,"EPHEMERIS_TYPE":0,"CLASSIFICATION_TYPE":"U","NORAD_CAT_ID":37180,"ELEMENT_SET_NO":999,"REV_AT_EPOCH":84081,"BSTAR":0.00010220627,"MEAN_MOTION_DOT":1.181e-5,"MEAN_MOTION_DDOT":0},{"OBJECT_NAME":"STARLINK-34316","OBJECT_ID":"2025-142M","EPOCH":"2026-03-09T23:14:56.718528","MEAN_MOTION":14.98336567,"ECCENTRICITY":0.00026396,"INCLINATION":70.0008,"RA_OF_ASC_NODE":313.7099,"ARG_OF_PERICENTER":268.2564,"MEAN_ANOMALY":91.8293,"EPHEMERIS_TYPE":0,"CLASSIFICATION_TYPE":"U","NORAD_CAT_ID":64707,"ELEMENT_SET_NO":999,"REV_AT_EPOCH":3969,"BSTAR":0.00012875823,"MEAN_MOTION_DOT":1.444e-5,"MEAN_MOTION_DDOT":0}]
